SENTINEL-2A             
1 40697U 15028A   26187.30559495  .00000200  00000+0  92961-4 0  9998
2 40697  98.5675 261.8859 0001236  96.3492 263.7832 14.30821485576467
SENTINEL-2B             
1 42063U 17013A   26187.29839683  .00000130  00000+0  66064-4 0  9998
2 42063  98.5682 261.8032 0001200  90.0409 270.0912 14.30813702487371
SENTINEL-2C             
1 60989U 24157A   26187.19351953  .00000118  00000+0  61531-4 0  9990
2 60989  98.5686 261.7062 0000937  94.8836 265.2454 14.30814003 95700
